COLIBRI-S (RS67S)       
1 61746U 24199M   26065.83180705  .00028040  00000+0  63001-3 0  9996
2 61746  97.3158 298.9800 0007790 298.0880  61.9580 15.43287130121606
HORS 3 (RS81S)          
1 61753U 24199U   26065.80264661  .00040369  00000+0  76732-3 0  9998
2 61753  97.3129 300.0367 0005873 305.2672  54.8028 15.48134697121685
HORS 4 (RS82S)          
1 61754U 24199V   26065.81113879  .00047717  00000+0  82234-3 0  9992
2 61754  97.3102 300.7313 0005477 302.4437  57.6285 15.50898523121733
HORIZON (RS59S)         
1 61757U 24199Y   26065.81414222  .00153884  00000+0  12996-2 0  9991
2 61757  97.3070 304.4914 0002993 268.3670  91.7249 15.69289623121977
ARCTICSAT 1 (RS74S)     
1 61762U 24199AD  26065.81901056  .00121788  00000+0  12255-2 0  9999
2 61762  97.3090 304.0368 0003438 267.8823  92.2043 15.65033473121944
SIT-2086                
1 61764U 24199AF  26065.81227259  .00030975  00000+0  60356-3 0  9990
2 61764  97.3122 300.7806 0006110 285.0372  75.0202 15.47469576118571
RUZAEVKA 390 (RS44S)    
1 61766U 24199AH  26065.86647914  .01660036  21208-2  17751-2 0  9995
2 61766  97.2791 308.0483 0002675 171.9596 188.1731 16.10678271119073
HYPERVIEW 1G (RS66S)    
1 61772U 24199AP  26065.80169153  .00079882  00000+0  10783-2 0  9994
2 61772  97.3085 301.7996 0006647 298.5286  61.5300 15.57494858118657
ALTAIR (RS65S)          
1 61779U 24199AW  26065.83321561  .00013011  00000+0  38532-3 0  9992
2 61779  97.3181 295.9138 0012328 319.7008  40.3321 15.34927068121408
ASRTU-1 (AO-123)        
1 61781U 24199AY  26065.81112096  .00011772  00000+0  35923-3 0  9997
2 61781  97.3154 295.4241 0013084 321.6798  38.3514 15.33992056118224
TUSUR GO (RS78S)        
1 61782U 24199AZ  26065.82805578  .00173868  00000+0  14354-2 0  9992
2 61782  97.3028 303.5157 0003813 291.4930  68.5926 15.69779995118779
SAMSAT-IONOSPHERE (RS7*)
1 61784U 24199BB  26065.82898932  .00046351  00000+0  84553-3 0  9995
2 61784  97.3116 299.8517 0008880 306.3250  53.7181 15.49261565121675
RTU MIREA 1 (RS51S)     
1 61785U 24199BC  26065.83042576  .00052328  00000+0  89245-3 0  9996
2 61785  97.3115 300.2895 0008603 301.7980  58.2433 15.51147474118551
TEVEL2-4                
1 63213U 25052D   26065.42589319  .00022467  00000+0  75686-3 0  9994
2 63213  97.4024 321.8640 0004642 101.7652 258.4110 15.30752810 54377
TEVEL2-5                
1 63214U 25052E   26065.43659166  .00023099  00000+0  78082-3 0  9999
2 63214  97.4022 321.8481 0004613 101.9125 258.2634 15.30636109 54375
TEVEL2-6                
1 63215U 25052F   26065.25020065  .00022223  00000+0  75251-3 0  9993
2 63215  97.4024 321.6479 0004705 103.4581 256.7185 15.30586491 54347
