[{"OBJECT_NAME":"COLIBRI-S (RS67S)","OBJECT_ID":"2024-199M","EPOCH":"2026-03-06T19:57:48.129120","MEAN_MOTION":15.4328713,"ECCENTRICITY":0.000779,"INCLINATION":97.3158,"RA_OF_ASC_NODE":298.98,"ARG_OF_PERICENTER":298.088,"MEAN_ANOMALY":61.958,"EPHEMERIS_TYPE":0,"CLASSIFICATION_TYPE":"U","NORAD_CAT_ID":61746,"ELEMENT_SET_NO":999,"REV_AT_EPOCH":12160,"BSTAR":0.00063001,"MEAN_MOTION_DOT":0.0002804,"MEAN_MOTION_DDOT":0},{"OBJECT_NAME":"HORS 3 (RS81S)","OBJECT_ID":"2024-199U","EPOCH":"2026-03-06T19:15:48.667104","MEAN_MOTION":15.48134697,"ECCENTRICITY":0.0005873,"INCLINATION":97.3129,"RA_OF_ASC_NODE":300.0367,"ARG_OF_PERICENTER":305.2672,"MEAN_ANOMALY":54.8028,"EPHEMERIS_TYPE":0,"CLASSIFICATION_TYPE":"U","NORAD_CAT_ID":61753,"ELEMENT_SET_NO":999,"REV_AT_EPOCH":12168,"BSTAR":0.00076732,"MEAN_MOTION_DOT":0.00040369,"MEAN_MOTION_DDOT":0},{"OBJECT_NAME":"HORS 4 (RS82S)","OBJECT_ID":"2024-199V","EPOCH":"2026-03-06T19:28:02.391456","MEAN_MOTION":15.50898523,"ECCENTRICITY":0.0005477,"INCLINATION":97.3102,"RA_OF_ASC_NODE":300.7313,"ARG_OF_PERICENTER":302.4437,"MEAN_ANOMALY":57.6285,"EPHEMERIS_TYPE":0,"CLASSIFICATION_TYPE":"U","NORAD_CAT_ID":61754,"ELEMENT_SET_NO":999,"REV_AT_EPOCH":12173,"BSTAR":0.00082234,"MEAN_MOTION_DOT":0.00047717,"MEAN_MOTION_DDOT":0},{"OBJECT_NAME":"HORIZON (RS59S)","OBJECT_ID":"2024-199Y","EPOCH":"2026-03-06T19:32:21.887808","MEAN_MOTION":15.69289623,"ECCENTRICITY":0.0002993,"INCLINATION":97.307,"RA_OF_ASC_NODE":304.4914,"ARG_OF_PERICENTER":268.367,"MEAN_ANOMALY":91.7249,"EPHEMERIS_TYPE":0,"CLASSIFICATION_TYPE":"U","NORAD_CAT_ID":61757,"ELEMENT_SET_NO":999,"REV_AT_EPOCH":12197,"BSTAR":0.0012996,"MEAN_MOTION_DOT":0.00153884,"MEAN_MOTION_DDOT":0},{"OBJECT_NAME":"ARCTICSAT 1 (RS74S)","OBJECT_ID":"2024-199AD","EPOCH":"2026-03-06T19:39:22.512384","MEAN_MOTION":15.65033473,"ECCENTRICITY":0.0003438,"INCLINATION":97.309,"RA_OF_ASC_NODE":304.0368,"ARG_OF_PERICENTER":267.8823,"MEAN_ANOMALY":92.2043,"EPHEMERIS_TYPE":0,"CLASSIFICATION_TYPE":"U","NORAD_CAT_ID":61762,"ELEMENT_SET_NO":999,"REV_AT_EPOCH":12194,"BSTAR":0.0012255,"MEAN_MOTION_DOT":0.00121788,"MEAN_MOTION_DDOT":0},{"OBJECT_NAME":"SIT-2086","OBJECT_ID":"2024-199AF","EPOCH":"2026-03-06T19:29:40.351776","MEAN_MOTION":15.47469576,"ECCENTRICITY":0.000611,"INCLINATION":97.3122,"RA_OF_ASC_NODE":300.7806,"ARG_OF_PERICENTER":285.0372,"MEAN_ANOMALY":75.0202,"EPHEMERIS_TYPE":0,"CLASSIFICATION_TYPE":"U","NORAD_CAT_ID":61764,"ELEMENT_SET_NO":999,"REV_AT_EPOCH":11857,"BSTAR":0.00060356,"MEAN_MOTION_DOT":0.00030975,"MEAN_MOTION_DDOT":0},{"OBJECT_NAME":"RUZAEVKA 390 (RS44S)","OBJECT_ID":"2024-199AH","EPOCH":"2026-03-06T20:47:43.797696","MEAN_MOTION":16.10678271,"ECCENTRICITY":0.0002675,"INCLINATION":97.2791,"RA_OF_ASC_NODE":308.0483,"ARG_OF_PERICENTER":171.9596,"MEAN_ANOMALY":188.1731,"EPHEMERIS_TYPE":0,"CLASSIFICATION_TYPE":"U","NORAD_CAT_ID":61766,"ELEMENT_SET_NO":999,"REV_AT_EPOCH":11907,"BSTAR":0.0017751,"MEAN_MOTION_DOT":0.01660036,"MEAN_MOTION_DDOT":0.0021208},{"OBJECT_NAME":"HYPERVIEW 1G (RS66S)","OBJECT_ID":"2024-199AP","EPOCH":"2026-03-06T19:14:26.148192","MEAN_MOTION":15.57494858,"ECCENTRICITY":0.0006647,"INCLINATION":97.3085,"RA_OF_ASC_NODE":301.7996,"ARG_OF_PERICENTER":298.5286,"MEAN_ANOMALY":61.53,"EPHEMERIS_TYPE":0,"CLASSIFICATION_TYPE":"U","NORAD_CAT_ID":61772,"ELEMENT_SET_NO":999,"REV_AT_EPOCH":11865,"BSTAR":0.0010783,"MEAN_MOTION_DOT":0.00079882,"MEAN_MOTION_DDOT":0},{"OBJECT_NAME":"ALTAIR (RS65S)","OBJECT_ID":"2024-199AW","EPOCH":"2026-03-06T19:59:49.828704","MEAN_MOTION":15.34927068,"ECCENTRICITY":0.0012328,"INCLINATION":97.3181,"RA_OF_ASC_NODE":295.9138,"ARG_OF_PERICENTER":319.7008,"MEAN_ANOMALY":40.3321,"EPHEMERIS_TYPE":0,"CLASSIFICATION_TYPE":"U","NORAD_CAT_ID":61779,"ELEMENT_SET_NO":999,"REV_AT_EPOCH":12140,"BSTAR":0.00038532,"MEAN_MOTION_DOT":0.00013011,"MEAN_MOTION_DDOT":0},{"OBJECT_NAME":"ASRTU-1 (AO-123)","OBJECT_ID":"2024-199AY","EPOCH":"2026-03-06T19:28:00.850944","MEAN_MOTION":15.33992056,"ECCENTRICITY":0.0013084,"INCLINATION":97.3154,"RA_OF_ASC_NODE":295.4241,"ARG_OF_PERICENTER":321.6798,"MEAN_ANOMALY":38.3514,"EPHEMERIS_TYPE":0,"CLASSIFICATION_TYPE":"U","NORAD_CAT_ID":61781,"ELEMENT_SET_NO":999,"REV_AT_EPOCH":11822,"BSTAR":0.00035923,"MEAN_MOTION_DOT":0.00011772,"MEAN_MOTION_DDOT":0},{"OBJECT_NAME":"TUSUR GO (RS78S)","OBJECT_ID":"2024-199AZ","EPOCH":"2026-03-06T19:52:24.019392","MEAN_MOTION":15.69779995,"ECCENTRICITY":0.0003813,"INCLINATION":97.3028,"RA_OF_ASC_NODE":303.5157,"ARG_OF_PERICENTER":291.493,"MEAN_ANOMALY":68.5926,"EPHEMERIS_TYPE":0,"CLASSIFICATION_TYPE":"U","NORAD_CAT_ID":61782,"ELEMENT_SET_NO":999,"REV_AT_EPOCH":11877,"BSTAR":0.0014354,"MEAN_MOTION_DOT":0.00173868,"MEAN_MOTION_DDOT":0},{"OBJECT_NAME":"SAMSAT-IONOSPHERE (RS75S)","OBJECT_ID":"2024-199BB","EPOCH":"2026-03-06T19:53:44.677248","MEAN_MOTION":15.49261565,"ECCENTRICITY":0.000888,"INCLINATION":97.3116,"RA_OF_ASC_NODE":299.8517,"ARG_OF_PERICENTER":306.325,"MEAN_ANOMALY":53.7181,"EPHEMERIS_TYPE":0,"CLASSIFICATION_TYPE":"U","NORAD_CAT_ID":61784,"ELEMENT_SET_NO":999,"REV_AT_EPOCH":12167,"BSTAR":0.00084553,"MEAN_MOTION_DOT":0.00046351,"MEAN_MOTION_DDOT":0},{"OBJECT_NAME":"RTU MIREA 1 (RS51S)","OBJECT_ID":"2024-199BC","EPOCH":"2026-03-06T19:55:48.785664","MEAN_MOTION":15.51147474,"ECCENTRICITY":0.0008603,"INCLINATION":97.3115,"RA_OF_ASC_NODE":300.2895,"ARG_OF_PERICENTER":301.798,"MEAN_ANOMALY":58.2433,"EPHEMERIS_TYPE":0,"CLASSIFICATION_TYPE":"U","NORAD_CAT_ID":61785,"ELEMENT_SET_NO":999,"REV_AT_EPOCH":11855,"BSTAR":0.00089245,"MEAN_MOTION_DOT":0.00052328,"MEAN_MOTION_DDOT":0},{"OBJECT_NAME":"TEVEL2-4","OBJECT_ID":"2025-052D","EPOCH":"2026-03-06T10:13:17.171616","MEAN_MOTION":15.3075281,"ECCENTRICITY":0.00046423,"INCLINATION":97.4024,"RA_OF_ASC_NODE":321.864,"ARG_OF_PERICENTER":101.7652,"MEAN_ANOMALY":258.411,"EPHEMERIS_TYPE":0,"CLASSIFICATION_TYPE":"U","NORAD_CAT_ID":63213,"ELEMENT_SET_NO":999,"REV_AT_EPOCH":5437,"BSTAR":0.00075686288,"MEAN_MOTION_DOT":0.00022467,"MEAN_MOTION_DDOT":0},{"OBJECT_NAME":"TEVEL2-5","OBJECT_ID":"2025-052E","EPOCH":"2026-03-06T10:28:41.519424","MEAN_MOTION":15.30636109,"ECCENTRICITY":0.00046132,"INCLINATION":97.4022,"RA_OF_ASC_NODE":321.8481,"ARG_OF_PERICENTER":101.9125,"MEAN_ANOMALY":258.2634,"EPHEMERIS_TYPE":0,"CLASSIFICATION_TYPE":"U","NORAD_CAT_ID":63214,"ELEMENT_SET_NO":999,"REV_AT_EPOCH":5437,"BSTAR":0.00078082187,"MEAN_MOTION_DOT":0.00023099,"MEAN_MOTION_DDOT":0},{"OBJECT_NAME":"TEVEL2-6","OBJECT_ID":"2025-052F","EPOCH":"2026-03-06T06:00:17.336160","MEAN_MOTION":15.30586491,"ECCENTRICITY":0.00047056,"INCLINATION":97.4024,"RA_OF_ASC_NODE":321.6479,"ARG_OF_PERICENTER":103.4581,"MEAN_ANOMALY":256.7185,"EPHEMERIS_TYPE":0,"CLASSIFICATION_TYPE":"U","NORAD_CAT_ID":63215,"ELEMENT_SET_NO":999,"REV_AT_EPOCH":5434,"BSTAR":0.00075251319,"MEAN_MOTION_DOT":0.00022223,"MEAN_MOTION_DDOT":0}]
